NORAD_CAT_ID,OBJECT_NAME,OBJECT_TYPE,EPOCH,MEAN_MOTION,ECCENTRICITY,INCLINATION,RA_OF_ASC_NODE,ARG_OF_PERICENTER,MEAN_ANOMALY,BSTAR,MEAN_MOTION_DOT,MEAN_MOTION_DDOT,TLE_LINE0,TLE_LINE1,TLE_LINE2,SEMIMAJOR_AXIS,PERIOD,APOGEE,PERIGEE,DECAYED
52555.0,STARLINK-3949,PAYLOAD,2022-09-25 12:25:13,15.08849879,0.0001441999999999,53.2194,30.7313,70.9796,289.1352,0.00017205,2.452e-05,0.0,0 STARLINK-3949,1 52555U 22051Y   22268.51751354  .00002452  00000-0  17205-3 0  9994,2 52555  53.2194  30.7313 0001442  70.9796 289.1352 15.08849879 21051,6917.85,95.437,540.7130000000002,538.7180000000002,0.0
52555.0,STARLINK-3949,PAYLOAD,2022-09-25 18:46:46,15.08845196,0.0001333,53.2191,29.542,61.3982,298.7144,0.00010316,1.354e-05,0.0,0 STARLINK-3949,1 52555U 22051Y   22268.78247764  .00001354  00000-0  10316-3 0  9994,2 52555  53.2191  29.5420 0001333  61.3982 298.7144 15.08845196 21168,6917.865,95.437,540.6519999999998,538.807,0.0
52555.0,STARLINK-3949,PAYLOAD,2022-09-25 20:22:09,15.08845829,0.0001242,53.2189,29.2444,63.0017,297.1102,0.00010094,1.319e-05,0.0,0 STARLINK-3949,1 52555U 22051Y   22268.84871607  .00001319  00000-0  10094-3 0  9994,2 52555  53.2189  29.2444 0001242  63.0017 297.1102 15.08845829 21109,6917.863,95.437,540.587,538.868,0.0
52555.0,STARLINK-3949,PAYLOAD,2022-09-26 10:40:38,15.0883176,0.0001288,53.2201,26.5685,59.81,300.302,9.8364e-05,1.278e-05,0.0,0 STARLINK-3949,1 52555U 22051Y   22269.44488556  .00001278  00000-0  98364-4 0  9999,2 52555  53.2201  26.5685 0001288  59.8100 300.3020 15.08831760 21269,6917.906,95.438,540.6619999999998,538.88,0.0
52555.0,STARLINK-3949,PAYLOAD,2022-09-27 02:34:28,15.08847713,0.0001319,53.2203,23.5949,60.5965,299.5159,0.00010044,1.311e-05,0.0,0 STARLINK-3949,1 52555U 22051Y   22270.10727622  .00001311  00000-0  10044-3 0  9990,2 52555  53.2203  23.5949 0001319  60.5965 299.5159 15.08847713 21362,6917.857,95.437,540.634,538.809,0.0
52555.0,STARLINK-3949,PAYLOAD,2022-09-27 13:42:10,15.08846258,0.0001319,53.2202,21.5132,61.5373,298.5752,-4.3143e-05,-9.75e-06,0.0,0 STARLINK-3949,1 52555U 22051Y   22270.57095917 -.00000975  00000-0 -43143-4 0  9990,2 52555  53.2202  21.5132 0001319  61.5373 298.5752 15.08846258 21436,6917.861,95.437,540.639,538.814,0.0
52555.0,STARLINK-3949,PAYLOAD,2022-09-28 13:32:56,15.08846935,0.0001628,53.22,17.0535,62.7137,297.402,0.00033947,5.12e-05,0.0,0 STARLINK-3949,1 52555U 22051Y   22271.56454643  .00005120  00000-0  33947-3 0  9990,2 52555  53.2200  17.0535 0001628  62.7137 297.4020 15.08846935 21512,6917.859,95.437,540.85,538.5980000000002,0.0
52555.0,STARLINK-3949,PAYLOAD,2022-09-28 16:43:42,15.08857887,0.0001597,53.2194,16.4588,59.7121,300.4029,0.00024407,3.6e-05,0.0,0 STARLINK-3949,1 52555U 22051Y   22271.69702420  .00003600  00000-0  24407-3 0  9995,2 52555  53.2194  16.4588 0001597  59.7121 300.4029 15.08857887 21533,6917.826,95.436,540.795,538.586,0.0
52555.0,STARLINK-3949,PAYLOAD,2022-09-29 13:23:45,15.0881686,0.0001558,53.2192,12.5931,58.5213,301.5931,-0.00025776,-4.385e-05,0.0,0 STARLINK-3949,1 52555U 22051Y   22272.55816612 -.00004385  00000-0 -25776-3 0  9993,2 52555  53.2192  12.5931 0001558  58.5213 301.5931 15.08816860 21738,6917.951,95.439,540.894,538.738,0.0
52555.0,STARLINK-3949,PAYLOAD,2022-09-29 18:09:54,15.08816552,0.0001594,53.2195,11.701,58.4073,301.7075,-0.00041041,-6.809999999999999e-05,0.0,0 STARLINK-3949,1 52555U 22051Y   22272.75688396 -.00006810  00000-0 -41041-3 0  9999,2 52555  53.2195  11.7010 0001594  58.4073 301.7075 15.08816552 21697,6917.9519999999975,95.439,540.92,538.714,0.0
52555.0,STARLINK-3949,PAYLOAD,2022-09-30 03:42:13,15.08833408,0.00016,53.2185,9.9167,60.472,299.6431,2.6212e-05,1.29e-06,0.0,0 STARLINK-3949,1 52555U 22051Y   22273.15432280  .00000129  00000-0  26212-4 0  9992,2 52555  53.2185   9.9167 0001600  60.4720 299.6431 15.08833408 21823,6917.901,95.438,540.872,538.659,0.0
52555.0,STARLINK-3949,PAYLOAD,2022-09-30 13:14:32,15.08861748,0.0001610999999999,53.2194,8.1335,51.1747,308.9389,0.0022476999999999,0.00035687,0.0,0 STARLINK-3949,1 52555U 22051Y   22273.55176600  .00035687  00000-0  22477-2 0  9991,2 52555  53.2194   8.1335 0001611  51.1747 308.9389 15.08861748 21812,6917.814,95.436,540.793,538.564,0.0
52555.0,STARLINK-3949,PAYLOAD,2022-09-30 16:25:18,15.08867559,0.0001615,53.2195,7.5391,49.6839,310.4294,0.0021538,0.00034182,0.0,0 STARLINK-3949,1 52555U 22051Y   22273.68424454  .00034182  00000-0  21538-2 0  9994,2 52555  53.2195   7.5391 0001615  49.6839 310.4294 15.08867559 21905,6917.795999999999,95.436,540.778,538.544,0.0
52555.0,STARLINK-3949,PAYLOAD,2022-10-01 03:33:00,15.08856748,0.0001625,53.2188,5.4575,67.18,292.9363,0.00050021,7.685e-05,0.0,0 STARLINK-3949,1 52555U 22051Y   22274.14791977  .00007685  00000-0  50021-3 0  9991,2 52555  53.2188   5.4575 0001625  67.1800 292.9363 15.08856748 21978,6917.829000000002,95.436,540.818,538.57,0.0
52555.0,STARLINK-3949,PAYLOAD,2022-10-01 13:05:19,15.08843932,0.0001559,53.2194,3.6733,53.0386,307.0749,0.00027244,4.051e-05,0.0,0 STARLINK-3949,1 52555U 22051Y   22274.54536161  .00004051  00000-0  27244-3 0  9992,2 52555  53.2194   3.6733 0001559  53.0386 307.0749 15.08843932 21966,6917.868,95.437,540.812,538.655,0.0
52555.0,STARLINK-3949,PAYLOAD,2022-10-01 16:16:05,15.08844381,0.0001520999999999,53.2192,3.0789,53.257,306.8562,0.0001976999999999,2.860000000000001e-05,0.0,0 STARLINK-3949,1 52555U 22051Y   22274.67784094  .00002860  00000-0  19770-3 0  9997,2 52555  53.2192   3.0789 0001521  53.2570 306.8562 15.08844381 21986,6917.8669999999975,95.437,540.784,538.68,0.0
52555.0,STARLINK-3949,PAYLOAD,2022-10-02 12:56:07,15.08828872,0.0001554,53.2192,359.2136,52.76300000000001,307.3504,-0.00011938,-2.187e-05,0.0,0 STARLINK-3949,1 52555U 22051Y   22275.53897185 -.00002187  00000-0 -11938-3 0  9991,2 52555  53.2192 359.2136 0001554  52.7630 307.3504 15.08828872 22110,6917.9140000000025,95.438,540.854,538.7040000000002,0.0
52555.0,STARLINK-3949,PAYLOAD,2022-10-02 22:28:25,15.08839317,0.0001641,53.2198,357.4285,51.3185,308.7954,-1.4546e-05,-5.2e-06,0.0,0 STARLINK-3949,1 52555U 22051Y   22275.93640800 -.00000520  00000-0 -14546-4 0  9993,2 52555  53.2198 357.4285 0001641  51.3185 308.7954 15.08839317 22242,6917.882,95.438,540.883,538.612,0.0
52555.0,STARLINK-3949,PAYLOAD,2022-10-03 11:11:29,15.08859738,0.0001635,53.2194,355.0502,53.828,306.2863,0.00035213,5.324e-05,0.0,0 STARLINK-3949,1 52555U 22051Y   22276.46631875  .00005324  00000-0  35213-3 0  9992,2 52555  53.2194 355.0502 0001635  53.8280 306.2863 15.08859738 22320,6917.82,95.436,540.816,538.554,0.0
52555.0,STARLINK-3949,PAYLOAD,2022-10-03 12:46:53,15.08861968,0.0001599,53.2191,354.7528,54.6947,305.4195,0.00060461,9.353e-05,0.0,0 STARLINK-3949,1 52555U 22051Y   22276.53256032  .00009353  00000-0  60461-3 0  9997,2 52555  53.2191 354.7528 0001599  54.6947 305.4195 15.08861968 22269,6917.813,95.436,540.784,538.572,0.0
52555.0,STARLINK-3949,PAYLOAD,2022-10-03 17:33:02,15.08878147,0.0001625,53.219,353.8607,52.9777,307.1363,0.0012844,0.00020234,0.0,0 STARLINK-3949,1 52555U 22051Y   22276.73127837  .00020234  00000-0  12844-2 0  9991,2 52555  53.2190 353.8607 0001625  52.9777 307.1363 15.08878147 22294,6917.764,95.435,540.753,538.505,0.0
52555.0,STARLINK-3949,PAYLOAD,2022-10-03 23:54:34,15.08885522,0.0001561,53.2187,352.6711,54.9612,305.1527,0.0011972999999999,0.00018842,0.0,0 STARLINK-3949,1 52555U 22051Y   22276.99623231  .00018842  00000-0  11973-2 0  9992,2 52555  53.2187 352.6711 0001561  54.9612 305.1527 15.08885522 22400,6917.741,95.435,540.686,538.526,0.0
52555.0,STARLINK-3949,PAYLOAD,2022-10-04 12:37:39,15.08864831,0.0001696,53.2188,350.2928,48.3166,311.7971,0.00084515,0.00013197,0.0,0 STARLINK-3949,1 52555U 22051Y   22277.52614809  .00013197  00000-0  84515-3 0  9994,2 52555  53.2188 350.2928 0001696  48.3166 311.7971 15.08864831 22489,6917.804,95.436,540.8430000000002,538.496,0.0
52555.0,STARLINK-3949,PAYLOAD,2022-10-04 22:09:57,15.08849623,0.0001581,53.2193,348.5088,50.3299,309.7832,0.00092393,0.00014451,0.0,0 STARLINK-3949,1 52555U 22051Y   22277.92358754  .00014451  00000-0  92393-3 0  9999,2 52555  53.2193 348.5088 0001581  50.3299 309.7832 15.08849623 22547,6917.851,95.437,540.81,538.622,0.0
52555.0,STARLINK-3949,PAYLOAD,2022-10-05 10:53:03,15.08838631,0.0001525,53.2187,346.1304,34.2446,325.8645,0.00143,0.00022543,0.0,0 STARLINK-3949,1 52555U 22051Y   22278.45351065  .00022543  00000-0  14300-2 0  9998,2 52555  53.2187 346.1304 0001525  34.2446 325.8645 15.08838631 22625,6917.885,95.438,540.805,538.695,0.0
52555.0,STARLINK-3949,PAYLOAD,2022-10-06 04:22:18,15.08829837,0.0001704,53.2197,342.8587,68.8922,291.2252,0.0011786,0.00018514,0.0,0 STARLINK-3949,1 52555U 22051Y   22279.18216220  .00018514  00000-0  11786-2 0  9990,2 52555  53.2197 342.8587 0001704  68.8922 291.2252 15.08829837 22733,6917.911,95.438,540.955,538.5980000000002,0.0
52555.0,STARLINK-3949,PAYLOAD,2022-10-06 10:43:51,15.08826269,0.0001588999999999,53.2188,341.6687,52.5082,307.6054,0.00053531,8.239e-05,0.0,0 STARLINK-3949,1 52555U 22051Y   22279.44712519  .00008239  00000-0  53531-3 0  9999,2 52555  53.2188 341.6687 0001589  52.5082 307.6054 15.08826269 22704,6917.922,95.438,540.887,538.688,0.0
52555.0,STARLINK-3949,PAYLOAD,2022-10-06 15:30:00,15.08835574,0.0001605,53.2192,340.7772,50.1401,309.9732,0.00052648,8.1e-05,0.0,0 STARLINK-3949,1 52555U 22051Y   22279.64584442  .00008100  00000-0  52648-3 0  9998,2 52555  53.2192 340.7772 0001605  50.1401 309.9732 15.08835574 22732,6917.894,95.438,540.869,538.649,0.0
52555.0,STARLINK-3949,PAYLOAD,2022-10-06 21:51:33,15.08847302,0.0001604,53.2193,339.5871,53.6814,306.4326,0.00058746,9.076e-05,0.0,0 STARLINK-3949,1 52555U 22051Y   22279.91080083  .00009076  00000-0  58746-3 0  9998,2 52555  53.2193 339.5871 0001604  53.6814 306.4326 15.08847302 22849,6917.858,95.437,540.8330000000002,538.613,0.0
